{"generatedAt":"2026-05-05T08:19:47.084492Z","satellites":[{"name":"STARLINK-37540","tle1":"1 68914U 26097V   26124.75002315 -.02080782  12864-2 -41302-2 0  9994","tle2":"2 68914  97.2864 319.6809 0001387  96.1334 149.4228 16.00090469  1946"}]}