{
  "norad_id": 68914,
  "name": "STARLINK-37540",
  "history": [
    {
      "epoch": "2026-05-04T18:00:02.000160Z",
      "apogee_km": 275.09061697951165,
      "perigee_km": 273.24526758852153,
      "latitude_deg": -64.76120796357715,
      "longitude_deg": -8.609322569714429,
      "height_km": 299.70007915633903,
      "semi_major_axis_km": 6652.304942284017,
      "eccentricity": 0.0001387,
      "inclination_deg": 97.2864,
      "raan_deg": 319.6809,
      "arg_perigee_deg": 96.1334,
      "mean_anomaly_deg": 149.4228,
      "mean_motion_rev_day": 16.00090469
    }
  ]
}